[
    {
        "OBJECT_NAME": "STARLINK-6118",
        "OBJECT_ID": "2023-090F",
        "EPOCH": "2023-11-14T21:51:51.808320",
        "MEAN_MOTION": 15.02535685,
        "ECCENTRICITY": 0.0001235,
        "INCLINATION": 43.0009,
        "RA_OF_ASC_NODE": 190.5996,
        "ARG_OF_PERICENTER": 274.3587,
        "MEAN_ANOMALY": 85.7114,
        "EPHEMERIS_TYPE": 0,
        "CLASSIFICATION_TYPE": "U",
        "NORAD_CAT_ID": 57106,
        "ELEMENT_SET_NO": 999,
        "REV_AT_EPOCH": 2318,
        "BSTAR": 0.00012914,
        "MEAN_MOTION_DOT": 1.541e-5,
        "MEAN_MOTION_DDOT": 0
    },
    {
        "OBJECT_NAME": "STARLINK-6131",
        "OBJECT_ID": "2023-090G",
        "EPOCH": "2023-11-14T16:45:29.906784",
        "MEAN_MOTION": 15.02535523,
        "ECCENTRICITY": 0.0001347,
        "INCLINATION": 43.001,
        "RA_OF_ASC_NODE": 191.584,
        "ARG_OF_PERICENTER": 267.9385,
        "MEAN_ANOMALY": 92.1303,
        "EPHEMERIS_TYPE": 0,
        "CLASSIFICATION_TYPE": "U",
        "NORAD_CAT_ID": 57107,
        "ELEMENT_SET_NO": 999,
        "REV_AT_EPOCH": 2315,
        "BSTAR": -7.6174e-6,
        "MEAN_MOTION_DOT": -3.06e-6,
        "MEAN_MOTION_DDOT": 0
    },
    {
        "OBJECT_NAME": "STARLINK-6099",
        "OBJECT_ID": "2023-090H",
        "EPOCH": "2023-11-14T21:55:03.594720",
        "MEAN_MOTION": 15.02532552,
        "ECCENTRICITY": 0.0001285,
        "INCLINATION": 43.0011,
        "RA_OF_ASC_NODE": 190.6177,
        "ARG_OF_PERICENTER": 276.3537,
        "MEAN_ANOMALY": 83.7159,
        "EPHEMERIS_TYPE": 0,
        "CLASSIFICATION_TYPE": "U",
        "NORAD_CAT_ID": 57108,
        "ELEMENT_SET_NO": 999,
        "REV_AT_EPOCH": 2318,
        "BSTAR": 0.00014039,
        "MEAN_MOTION_DOT": 1.693e-5,
        "MEAN_MOTION_DDOT": 0
    },
    {
        "OBJECT_NAME": "STARLINK-6139",
        "OBJECT_ID": "2023-090J",
        "EPOCH": "2023-11-14T16:53:29.262624",
        "MEAN_MOTION": 15.02536799,
        "ECCENTRICITY": 0.0001301,
        "INCLINATION": 43.001,
        "RA_OF_ASC_NODE": 191.6258,
        "ARG_OF_PERICENTER": 263.4233,
        "MEAN_ANOMALY": 96.6461,
        "EPHEMERIS_TYPE": 0,
        "CLASSIFICATION_TYPE": "U",
        "NORAD_CAT_ID": 57109,
        "ELEMENT_SET_NO": 999,
        "REV_AT_EPOCH": 2315,
        "BSTAR": 5.5426e-5,
        "MEAN_MOTION_DOT": 5.45e-6,
        "MEAN_MOTION_DDOT": 0
    },
    {
        "OBJECT_NAME": "STARLINK-6134",
        "OBJECT_ID": "2023-090K",
        "EPOCH": "2023-11-14T21:56:39.283584",
        "MEAN_MOTION": 15.02536437,
        "ECCENTRICITY": 0.0001277,
        "INCLINATION": 43.0007,
        "RA_OF_ASC_NODE": 190.6261,
        "ARG_OF_PERICENTER": 269.0608,
        "MEAN_ANOMALY": 91.0088,
        "EPHEMERIS_TYPE": 0,
        "CLASSIFICATION_TYPE": "U",
        "NORAD_CAT_ID": 57110,
        "ELEMENT_SET_NO": 999,
        "REV_AT_EPOCH": 2318,
        "BSTAR": 0.00012344,
        "MEAN_MOTION_DOT": 1.464e-5,
        "MEAN_MOTION_DDOT": 0
    },
    {
        "OBJECT_NAME": "STARLINK-6140",
        "OBJECT_ID": "2023-090L",
        "EPOCH": "2023-11-14T22:58:48.976320",
        "MEAN_MOTION": 15.02542823,
        "ECCENTRICITY": 0.0001276,
        "INCLINATION": 43.0005,
        "RA_OF_ASC_NODE": 190.0884,
        "ARG_OF_PERICENTER": 275.4568,
        "MEAN_ANOMALY": 84.6129,
        "EPHEMERIS_TYPE": 0,
        "CLASSIFICATION_TYPE": "U",
        "NORAD_CAT_ID": 57111,
        "ELEMENT_SET_NO": 999,
        "REV_AT_EPOCH": 2319,
        "BSTAR": 0.00022899,
        "MEAN_MOTION_DOT": 2.892e-5,
        "MEAN_MOTION_DDOT": 0
    },
    {
        "OBJECT_NAME": "STARLINK-6141",
        "OBJECT_ID": "2023-090M",
        "EPOCH": "2023-11-14T18:35:36.460320",
        "MEAN_MOTION": 15.02537896,
        "ECCENTRICITY": 0.0001198,
        "INCLINATION": 43.0006,
        "RA_OF_ASC_NODE": 191.2986,
        "ARG_OF_PERICENTER": 279.6883,
        "MEAN_ANOMALY": 80.3824,
        "EPHEMERIS_TYPE": 0,
        "CLASSIFICATION_TYPE": "U",
        "NORAD_CAT_ID": 57112,
        "ELEMENT_SET_NO": 999,
        "REV_AT_EPOCH": 2316,
        "BSTAR": 9.8347e-5,
        "MEAN_MOTION_DOT": 1.125e-5,
        "MEAN_MOTION_DDOT": 0
    },
    {
        "OBJECT_NAME": "STARLINK-6142",
        "OBJECT_ID": "2023-090N",
        "EPOCH": "2023-11-14T23:06:48.216384",
        "MEAN_MOTION": 15.02537671,
        "ECCENTRICITY": 0.0001534,
        "INCLINATION": 42.9999,
        "RA_OF_ASC_NODE": 190.1311,
        "ARG_OF_PERICENTER": 277.1862,
        "MEAN_ANOMALY": 82.8806,
        "EPHEMERIS_TYPE": 0,
        "CLASSIFICATION_TYPE": "U",
        "NORAD_CAT_ID": 57113,
        "ELEMENT_SET_NO": 999,
        "REV_AT_EPOCH": 2319,
        "BSTAR": 0.00027239,
        "MEAN_MOTION_DOT": 3.478e-5,
        "MEAN_MOTION_DDOT": 0
    },
    {
        "OBJECT_NAME": "STARLINK-6125",
        "OBJECT_ID": "2023-090P",
        "EPOCH": "2023-11-14T23:02:00.619296",
        "MEAN_MOTION": 15.02544197,
        "ECCENTRICITY": 0.0001427,
        "INCLINATION": 43.0007,
        "RA_OF_ASC_NODE": 190.1046,
        "ARG_OF_PERICENTER": 266.4616,
        "MEAN_ANOMALY": 93.6063,
        "EPHEMERIS_TYPE": 0,
        "CLASSIFICATION_TYPE": "U",
        "NORAD_CAT_ID": 57114,
        "ELEMENT_SET_NO": 999,
        "REV_AT_EPOCH": 2319,
        "BSTAR": 0.00022792,
        "MEAN_MOTION_DOT": 2.877e-5,
        "MEAN_MOTION_DDOT": 0
    },
    {
        "OBJECT_NAME": "STARLINK-6085",
        "OBJECT_ID": "2023-090Q",
        "EPOCH": "2023-11-15T02:05:29.753952",
        "MEAN_MOTION": 15.02565185,
        "ECCENTRICITY": 0.0001357,
        "INCLINATION": 43.0004,
        "RA_OF_ASC_NODE": 189.3405,
        "ARG_OF_PERICENTER": 271.7154,
        "MEAN_ANOMALY": 88.3533,
        "EPHEMERIS_TYPE": 0,
        "CLASSIFICATION_TYPE": "U",
        "NORAD_CAT_ID": 57115,
        "ELEMENT_SET_NO": 999,
        "REV_AT_EPOCH": 2207,
        "BSTAR": 0.0013189,
        "MEAN_MOTION_DOT": 0.00017671,
        "MEAN_MOTION_DDOT": 0
    },
    {
        "OBJECT_NAME": "STARLINK-6129",
        "OBJECT_ID": "2023-090R",
        "EPOCH": "2023-11-14T16:48:41.510016",
        "MEAN_MOTION": 15.02538802,
        "ECCENTRICITY": 0.0001299,
        "INCLINATION": 43.0005,
        "RA_OF_ASC_NODE": 191.6015,
        "ARG_OF_PERICENTER": 265.1509,
        "MEAN_ANOMALY": 94.9184,
        "EPHEMERIS_TYPE": 0,
        "CLASSIFICATION_TYPE": "U",
        "NORAD_CAT_ID": 57116,
        "ELEMENT_SET_NO": 999,
        "REV_AT_EPOCH": 2315,
        "BSTAR": 0.00013471,
        "MEAN_MOTION_DOT": 1.617e-5,
        "MEAN_MOTION_DDOT": 0
    },
    {
        "OBJECT_NAME": "STARLINK-6148",
        "OBJECT_ID": "2023-090S",
        "EPOCH": "2023-11-14T22:49:13.700928",
        "MEAN_MOTION": 15.02540442,
        "ECCENTRICITY": 0.0001238,
        "INCLINATION": 43.0008,
        "RA_OF_ASC_NODE": 190.0361,
        "ARG_OF_PERICENTER": 266.6742,
        "MEAN_ANOMALY": 93.3958,
        "EPHEMERIS_TYPE": 0,
        "CLASSIFICATION_TYPE": "U",
        "NORAD_CAT_ID": 57117,
        "ELEMENT_SET_NO": 999,
        "REV_AT_EPOCH": 2319,
        "BSTAR": 0.00016787,
        "MEAN_MOTION_DOT": 2.065e-5,
        "MEAN_MOTION_DDOT": 0
    },
    {
        "OBJECT_NAME": "STARLINK-6151",
        "OBJECT_ID": "2023-090T",
        "EPOCH": "2023-11-15T02:08:40.010208",
        "MEAN_MOTION": 15.02543368,
        "ECCENTRICITY": 0.0001014,
        "INCLINATION": 43.0024,
        "RA_OF_ASC_NODE": 189.3564,
        "ARG_OF_PERICENTER": 264.5615,
        "MEAN_ANOMALY": 95.5112,
        "EPHEMERIS_TYPE": 0,
        "CLASSIFICATION_TYPE": "U",
        "NORAD_CAT_ID": 57118,
        "ELEMENT_SET_NO": 999,
        "REV_AT_EPOCH": 2207,
        "BSTAR": 9.9747e-5,
        "MEAN_MOTION_DOT": 1.144e-5,
        "MEAN_MOTION_DDOT": 0
    }
]
