0 STARLINK-6118
1 57106U 23090F   23318.91101630  .00001541  00000-0  12914-3 0  9992
2 57106  43.0009 190.5996 0001235 274.3587  85.7114 15.02535685 23183
0 STARLINK-6131
1 57107U 23090G   23318.69826281 -.00000306  00000-0 -76174-5 0  9994
2 57107  43.0010 191.5840 0001347 267.9385  92.1303 15.02535523 23153
0 STARLINK-6099
1 57108U 23090H   23318.91323605  .00001693  00000-0  14039-3 0  9990
2 57108  43.0011 190.6177 0001285 276.3537  83.7159 15.02532552 23189
0 STARLINK-6139
1 57109U 23090J   23318.70381091  .00000545  00000-0  55426-4 0  9992
2 57109  43.0010 191.6258 0001301 263.4233  96.6461 15.02536799 23152
0 STARLINK-6134
1 57110U 23090K   23318.91434356  .00001464  00000-0  12344-3 0  9992
2 57110  43.0007 190.6261 0001277 269.0608  91.0088 15.02536437 23189
0 STARLINK-6140
1 57111U 23090L   23318.95751130  .00002892  00000-0  22899-3 0  9991
2 57111  43.0005 190.0884 0001276 275.4568  84.6129 15.02542823 23199
0 STARLINK-6141
1 57112U 23090M   23318.77472755  .00001125  00000-0  98347-4 0  9995
2 57112  43.0006 191.2986 0001198 279.6883  80.3824 15.02537896 23162
0 STARLINK-6142
1 57113U 23090N   23318.96305806  .00003478  00000-0  27239-3 0  9993
2 57113  42.9999 190.1311 0001534 277.1862  82.8806 15.02537671 23197
0 STARLINK-6125
1 57114U 23090P   23318.95972939  .00002877  00000-0  22792-3 0  9991
2 57114  43.0007 190.1046 0001427 266.4616  93.6063 15.02544197 23190
0 STARLINK-6085
1 57115U 23090Q   23319.08714993  .00017671  00000-0  13189-2 0  9998
2 57115  43.0004 189.3405 0001357 271.7154  88.3533 15.02565185 22074
0 STARLINK-6129
1 57116U 23090R   23318.70048044  .00001617  00000-0  13471-3 0  9992
2 57116  43.0005 191.6015 0001299 265.1509  94.9184 15.02538802 23156
0 STARLINK-6148
1 57117U 23090S   23318.95085302  .00002065  00000-0  16787-3 0  9999
2 57117  43.0008 190.0361 0001238 266.6742  93.3958 15.02540442 23194
0 STARLINK-6151
1 57118U 23090T   23319.08935197  .00001144  00000-0  99747-4 0  9996
2 57118  43.0024 189.3564 0001014 264.5615  95.5112 15.02543368 22079
